[{"OBJECT_NAME":"NANOSAT 1B","OBJECT_ID":"2009-041E","EPOCH":"2026-03-09T21:25:14.277504","MEAN_MOTION":14.92717139,"ECCENTRICITY":0.00507083,"INCLINATION":98.1028,"RA_OF_ASC_NODE":184.556,"ARG_OF_PERICENTER":130.665,"MEAN_ANOMALY":229.8993,"EPHEMERIS_TYPE":0,"CLASSIFICATION_TYPE":"U","NORAD_CAT_ID":35685,"ELEMENT_SET_NO":999,"REV_AT_EPOCH":89960,"BSTAR":0.0002341259,"MEAN_MOTION_DOT":2.414e-5,"MEAN_MOTION_DDOT":0},{"OBJECT_NAME":"STARLINK-5069","OBJECT_ID":"2023-021N","EPOCH":"2026-03-09T16:45:13.956480","MEAN_MOTION":14.98330184,"ECCENTRICITY":0.00032556,"INCLINATION":70.0013,"RA_OF_ASC_NODE":184.3951,"ARG_OF_PERICENTER":267.8989,"MEAN_ANOMALY":92.1798,"EPHEMERIS_TYPE":0,"CLASSIFICATION_TYPE":"U","NORAD_CAT_ID":55640,"ELEMENT_SET_NO":999,"REV_AT_EPOCH":16879,"BSTAR":-7.833443e-6,"MEAN_MOTION_DOT":-1.86e-6,"MEAN_MOTION_DDOT":0}]
